SL-16 R/B               
1 25400U 98043G   26057.85627055  .00000067  00000+0  46830-4 0  9990
2 25400  98.8235  11.1443 0010702  49.9493 310.2623 14.26046906437447
SL-16 R/B               
1 25407U 98045B   26057.48378108 -.00000186  00000+0 -69681-4 0  9993
2 25407  71.0109 205.1379 0006142  26.0293 334.1138 14.16190937425511
ISS (ZARYA)             
1 25544U 98067A   26057.92898234  .00012356  00000+0  23739-3 0  9998
2 25544  51.6324 125.5516 0008330 137.1924 222.9714 15.48321702554665
CZ-4B R/B               
1 25732U 99025C   26057.60927139  .00000056  00000+0  47828-4 0  9994
2 25732  98.6651 102.1521 0037365  18.5423 144.3223 14.18262842386593
OKEAN-O                 
1 25860U 99039A   26057.43139410  .00000660  00000+0  93461-4 0  9994
2 25860  97.9469 117.4361 0001587  74.4576 285.6811 14.80314560432725
SL-16 R/B               
1 25861U 99039B   26057.62446861  .00000562  00000+0  78065-4 0  9991
2 25861  97.9991 116.7363 0013512 295.6774  64.3042 14.81713647435224
DELTA 2 R/B             
1 25876U 99041E   26057.53962368  .00001629  00000+0  29979-3 0  9999
2 25876  51.7663 345.8113 0502258 315.5090  40.6520 14.11793860361454
HELIOS 1B               
1 25977U 99064A   26057.48141588  .00001666  00000+0  18958-3 0  9999
2 25977  98.1707 319.3948 0002454  90.2633 269.8864 14.87643725683590
TERRA                   
1 25994U 99068A   26057.89262468  .00000439  00000+0  98607-4 0  9995
2 25994  97.9618 111.7386 0001951 179.1078 233.0935 14.61001351393504
SL-16 R/B               
1 26070U 00006B   26057.63759947  .00000290  00000+0  17163-3 0  9992
2 26070  71.0017 121.0776 0017483 205.2805 154.7465 14.15821273346999
TITAN 4B R/B            
1 26474U 00047B   26057.89606002  .00003775  00000+0  23982-3 0  9993
2 26474  67.9884  70.8602 0037796  48.3508 312.0867 15.09444542391288
ENVISAT                 
1 27386U 02009A   26057.82505806  .00000123  00000+0  53807-4 0  9993
2 27386  98.3707  11.6823 0001379  85.5722 285.8194 14.39032208257612
