CCSDS_OMM_VERS = 2.0
CREATION_DATE  = 
ORIGINATOR     = 

OBJECT_NAME    = SL-16 R/B
OBJECT_ID      = 1998-043G
CENTER_NAME    = EARTH
REF_FRAME      = TEME
TIME_SYSTEM    = UTC
MEAN_ELEMENT_THEORY = SGP/SGP4

EPOCH          = 2026-02-26T20:33:01.775520
MEAN_MOTION    = 14.26046906
ECCENTRICITY   = .00107028
INCLINATION    = 98.8235
RA_OF_ASC_NODE = 11.1443
ARG_OF_PERICENTER = 49.9493
MEAN_ANOMALY   = 310.2623

EPHEMERIS_TYPE = 0
CLASSIFICATION_TYPE = U
NORAD_CAT_ID   = 25400
ELEMENT_SET_NO = 999
REV_AT_EPOCH   = 43744
BSTAR          = .46830072E-4
MEAN_MOTION_DOT = .67E-6
MEAN_MOTION_DDOT = 0

CCSDS_OMM_VERS = 2.0
CREATION_DATE  = 
ORIGINATOR     = 

OBJECT_NAME    = SL-16 R/B
OBJECT_ID      = 1998-045B
CENTER_NAME    = EARTH
REF_FRAME      = TEME
TIME_SYSTEM    = UTC
MEAN_ELEMENT_THEORY = SGP/SGP4

EPOCH          = 2026-02-26T11:36:38.685312
MEAN_MOTION    = 14.16190937
ECCENTRICITY   = .0006142
INCLINATION    = 71.0109
RA_OF_ASC_NODE = 205.1379
ARG_OF_PERICENTER = 26.0293
MEAN_ANOMALY   = 334.1138

EPHEMERIS_TYPE = 0
CLASSIFICATION_TYPE = U
NORAD_CAT_ID   = 25407
ELEMENT_SET_NO = 999
REV_AT_EPOCH   = 42551
BSTAR          = -.69681E-4
MEAN_MOTION_DOT = -.186E-5
MEAN_MOTION_DDOT = 0

CCSDS_OMM_VERS = 2.0
CREATION_DATE  = 
ORIGINATOR     = 

OBJECT_NAME    = ISS (ZARYA)
OBJECT_ID      = 1998-067A
CENTER_NAME    = EARTH
REF_FRAME      = TEME
TIME_SYSTEM    = UTC
MEAN_ELEMENT_THEORY = SGP/SGP4

EPOCH          = 2026-02-26T22:17:44.074176
MEAN_MOTION    = 15.48321702
ECCENTRICITY   = .00083307
INCLINATION    = 51.6324
RA_OF_ASC_NODE = 125.5516
ARG_OF_PERICENTER = 137.1924
MEAN_ANOMALY   = 222.9714

EPHEMERIS_TYPE = 0
CLASSIFICATION_TYPE = U
NORAD_CAT_ID   = 25544
ELEMENT_SET_NO = 999
REV_AT_EPOCH   = 55466
BSTAR          = .23738922E-3
MEAN_MOTION_DOT = .12356E-3
MEAN_MOTION_DDOT = 0

CCSDS_OMM_VERS = 2.0
CREATION_DATE  = 
ORIGINATOR     = 

OBJECT_NAME    = CZ-4B R/B
OBJECT_ID      = 1999-025C
CENTER_NAME    = EARTH
REF_FRAME      = TEME
TIME_SYSTEM    = UTC
MEAN_ELEMENT_THEORY = SGP/SGP4

EPOCH          = 2026-02-26T14:37:21.048096
MEAN_MOTION    = 14.18262842
ECCENTRICITY   = .0037365
INCLINATION    = 98.6651
RA_OF_ASC_NODE = 102.1521
ARG_OF_PERICENTER = 18.5423
MEAN_ANOMALY   = 144.3223

EPHEMERIS_TYPE = 0
CLASSIFICATION_TYPE = U
NORAD_CAT_ID   = 25732
ELEMENT_SET_NO = 999
REV_AT_EPOCH   = 38659
BSTAR          = .47828E-4
MEAN_MOTION_DOT = .56E-6
MEAN_MOTION_DDOT = 0

CCSDS_OMM_VERS = 2.0
CREATION_DATE  = 
ORIGINATOR     = 

OBJECT_NAME    = OKEAN-O
OBJECT_ID      = 1999-039A
CENTER_NAME    = EARTH
REF_FRAME      = TEME
TIME_SYSTEM    = UTC
MEAN_ELEMENT_THEORY = SGP/SGP4

EPOCH          = 2026-02-26T10:21:12.450240
MEAN_MOTION    = 14.80314560
ECCENTRICITY   = .0001587
INCLINATION    = 97.9469
RA_OF_ASC_NODE = 117.4361
ARG_OF_PERICENTER = 74.4576
MEAN_ANOMALY   = 285.6811

EPHEMERIS_TYPE = 0
CLASSIFICATION_TYPE = U
NORAD_CAT_ID   = 25860
ELEMENT_SET_NO = 999
REV_AT_EPOCH   = 43272
BSTAR          = .93461E-4
MEAN_MOTION_DOT = .66E-5
MEAN_MOTION_DDOT = 0

CCSDS_OMM_VERS = 2.0
CREATION_DATE  = 
ORIGINATOR     = 

OBJECT_NAME    = SL-16 R/B
OBJECT_ID      = 1999-039B
CENTER_NAME    = EARTH
REF_FRAME      = TEME
TIME_SYSTEM    = UTC
MEAN_ELEMENT_THEORY = SGP/SGP4

EPOCH          = 2026-02-26T14:59:14.087904
MEAN_MOTION    = 14.81713647
ECCENTRICITY   = .0013512
INCLINATION    = 97.9991
RA_OF_ASC_NODE = 116.7363
ARG_OF_PERICENTER = 295.6774
MEAN_ANOMALY   = 64.3042

EPHEMERIS_TYPE = 0
CLASSIFICATION_TYPE = U
NORAD_CAT_ID   = 25861
ELEMENT_SET_NO = 999
REV_AT_EPOCH   = 43522
BSTAR          = .78065E-4
MEAN_MOTION_DOT = .562E-5
MEAN_MOTION_DDOT = 0

CCSDS_OMM_VERS = 2.0
CREATION_DATE  = 
ORIGINATOR     = 

OBJECT_NAME    = DELTA 2 R/B
OBJECT_ID      = 1999-041E
CENTER_NAME    = EARTH
REF_FRAME      = TEME
TIME_SYSTEM    = UTC
MEAN_ELEMENT_THEORY = SGP/SGP4

EPOCH          = 2026-02-26T12:57:03.485952
MEAN_MOTION    = 14.11793860
ECCENTRICITY   = .0502258
INCLINATION    = 51.7663
RA_OF_ASC_NODE = 345.8113
ARG_OF_PERICENTER = 315.5090
MEAN_ANOMALY   = 40.6520

EPHEMERIS_TYPE = 0
CLASSIFICATION_TYPE = U
NORAD_CAT_ID   = 25876
ELEMENT_SET_NO = 999
REV_AT_EPOCH   = 36145
BSTAR          = .29979E-3
MEAN_MOTION_DOT = .1629E-4
MEAN_MOTION_DDOT = 0

CCSDS_OMM_VERS = 2.0
CREATION_DATE  = 
ORIGINATOR     = 

OBJECT_NAME    = HELIOS 1B
OBJECT_ID      = 1999-064A
CENTER_NAME    = EARTH
REF_FRAME      = TEME
TIME_SYSTEM    = UTC
MEAN_ELEMENT_THEORY = SGP/SGP4

EPOCH          = 2026-02-26T11:33:14.332032
MEAN_MOTION    = 14.87643725
ECCENTRICITY   = .0002454
INCLINATION    = 98.1707
RA_OF_ASC_NODE = 319.3948
ARG_OF_PERICENTER = 90.2633
MEAN_ANOMALY   = 269.8864

EPHEMERIS_TYPE = 0
CLASSIFICATION_TYPE = U
NORAD_CAT_ID   = 25977
ELEMENT_SET_NO = 999
REV_AT_EPOCH   = 68359
BSTAR          = .18958E-3
MEAN_MOTION_DOT = .1666E-4
MEAN_MOTION_DDOT = 0

CCSDS_OMM_VERS = 2.0
CREATION_DATE  = 
ORIGINATOR     = 

OBJECT_NAME    = TERRA
OBJECT_ID      = 1999-068A
CENTER_NAME    = EARTH
REF_FRAME      = TEME
TIME_SYSTEM    = UTC
MEAN_ELEMENT_THEORY = SGP/SGP4

EPOCH          = 2026-02-26T21:25:22.772352
MEAN_MOTION    = 14.61001351
ECCENTRICITY   = .0001951
INCLINATION    = 97.9618
RA_OF_ASC_NODE = 111.7386
ARG_OF_PERICENTER = 179.1078
MEAN_ANOMALY   = 233.0935

EPHEMERIS_TYPE = 0
CLASSIFICATION_TYPE = U
NORAD_CAT_ID   = 25994
ELEMENT_SET_NO = 999
REV_AT_EPOCH   = 39350
BSTAR          = .98607137E-4
MEAN_MOTION_DOT = .439E-5
MEAN_MOTION_DDOT = 0

CCSDS_OMM_VERS = 2.0
CREATION_DATE  = 
ORIGINATOR     = 

OBJECT_NAME    = SL-16 R/B
OBJECT_ID      = 2000-006B
CENTER_NAME    = EARTH
REF_FRAME      = TEME
TIME_SYSTEM    = UTC
MEAN_ELEMENT_THEORY = SGP/SGP4

EPOCH          = 2026-02-26T15:18:08.594208
MEAN_MOTION    = 14.15821273
ECCENTRICITY   = .0017483
INCLINATION    = 71.0017
RA_OF_ASC_NODE = 121.0776
ARG_OF_PERICENTER = 205.2805
MEAN_ANOMALY   = 154.7465

EPHEMERIS_TYPE = 0
CLASSIFICATION_TYPE = U
NORAD_CAT_ID   = 26070
ELEMENT_SET_NO = 999
REV_AT_EPOCH   = 34699
BSTAR          = .17163E-3
MEAN_MOTION_DOT = .29E-5
MEAN_MOTION_DDOT = 0

CCSDS_OMM_VERS = 2.0
CREATION_DATE  = 
ORIGINATOR     = 

OBJECT_NAME    = TITAN 4B R/B
OBJECT_ID      = 2000-047B
CENTER_NAME    = EARTH
REF_FRAME      = TEME
TIME_SYSTEM    = UTC
MEAN_ELEMENT_THEORY = SGP/SGP4

EPOCH          = 2026-02-26T21:30:19.585728
MEAN_MOTION    = 15.09444542
ECCENTRICITY   = .00377962
INCLINATION    = 67.9884
RA_OF_ASC_NODE = 70.8602
ARG_OF_PERICENTER = 48.3508
MEAN_ANOMALY   = 312.0867

EPHEMERIS_TYPE = 0
CLASSIFICATION_TYPE = U
NORAD_CAT_ID   = 26474
ELEMENT_SET_NO = 999
REV_AT_EPOCH   = 39128
BSTAR          = .2398213E-3
MEAN_MOTION_DOT = .3775E-4
MEAN_MOTION_DDOT = 0

CCSDS_OMM_VERS = 2.0
CREATION_DATE  = 
ORIGINATOR     = 

OBJECT_NAME    = ENVISAT
OBJECT_ID      = 2002-009A
CENTER_NAME    = EARTH
REF_FRAME      = TEME
TIME_SYSTEM    = UTC
MEAN_ELEMENT_THEORY = SGP/SGP4

EPOCH          = 2026-02-26T19:48:05.016384
MEAN_MOTION    = 14.39032208
ECCENTRICITY   = .00013798
INCLINATION    = 98.3707
RA_OF_ASC_NODE = 11.6823
ARG_OF_PERICENTER = 85.5722
MEAN_ANOMALY   = 285.8194

EPHEMERIS_TYPE = 0
CLASSIFICATION_TYPE = U
NORAD_CAT_ID   = 27386
ELEMENT_SET_NO = 999
REV_AT_EPOCH   = 25761
BSTAR          = .53807434E-4
MEAN_MOTION_DOT = .123E-5
MEAN_MOTION_DDOT = 0

